[{"OBJECT_NAME":"ONEWEB-0341","OBJECT_ID":"2021-083X","EPOCH":"2026-04-02T06:20:28.564800","MEAN_MOTION":13.18689324,"ECCENTRICITY":0.0001799,"INCLINATION":87.9235,"RA_OF_ASC_NODE":350.5518,"ARG_OF_PERICENTER":63.252,"MEAN_ANOMALY":296.8796,"EPHEMERIS_TYPE":0,"CLASSIFICATION_TYPE":"U","NORAD_CAT_ID":49207,"ELEMENT_SET_NO":999,"REV_AT_EPOCH":21998,"BSTAR":0.00015721,"MEAN_MOTION_DOT":7.5e-07,"MEAN_MOTION_DDOT":0.0},{"OBJECT_NAME":"ONEWEB-0342","OBJECT_ID":"2021-083Y","EPOCH":"2026-04-02T01:31:51.271104","MEAN_MOTION":13.20771168,"ECCENTRICITY":0.000182,"INCLINATION":87.9143,"RA_OF_ASC_NODE":289.636,"ARG_OF_PERICENTER":88.8269,"MEAN_ANOMALY":271.3073,"EPHEMERIS_TYPE":0,"CLASSIFICATION_TYPE":"U","NORAD_CAT_ID":49208,"ELEMENT_SET_NO":999,"REV_AT_EPOCH":22673,"BSTAR":0.00012216,"MEAN_MOTION_DOT":6.3e-07,"MEAN_MOTION_DDOT":0.0},{"OBJECT_NAME":"ONEWEB-0343","OBJECT_ID":"2021-083Z","EPOCH":"2026-04-02T06:32:22.516512","MEAN_MOTION":13.186854,"ECCENTRICITY":0.0002091,"INCLINATION":87.9241,"RA_OF_ASC_NODE":350.5454,"ARG_OF_PERICENTER":67.2016,"MEAN_ANOMALY":292.9337,"EPHEMERIS_TYPE":0,"CLASSIFICATION_TYPE":"U","NORAD_CAT_ID":49209,"ELEMENT_SET_NO":999,"REV_AT_EPOCH":22003,"BSTAR":0.00020793,"MEAN_MOTION_DOT":9.5e-07,"MEAN_MOTION_DDOT":0.0},{"OBJECT_NAME":"ONEWEB-0344","OBJECT_ID":"2021-083AA","EPOCH":"2026-04-02T04:05:55.658976","MEAN_MOTION":13.13470145,"ECCENTRICITY":0.0001686,"INCLINATION":87.8994,"RA_OF_ASC_NODE":335.3831,"ARG_OF_PERICENTER":67.6812,"MEAN_ANOMALY":292.4496,"EPHEMERIS_TYPE":0,"CLASSIFICATION_TYPE":"U","NORAD_CAT_ID":49210,"ELEMENT_SET_NO":999,"REV_AT_EPOCH":22091,"BSTAR":-0.0005196300000000001,"MEAN_MOTION_DOT":-1.77e-06,"MEAN_MOTION_DDOT":0.0},{"OBJECT_NAME":"ONEWEB-0345","OBJECT_ID":"2021-083AB","EPOCH":"2026-04-02T05:43:25.605120","MEAN_MOTION":13.13471566,"ECCENTRICITY":0.0001716,"INCLINATION":87.9009,"RA_OF_ASC_NODE":335.3395,"ARG_OF_PERICENTER":69.3024,"MEAN_ANOMALY":290.8289,"EPHEMERIS_TYPE":0,"CLASSIFICATION_TYPE":"U","NORAD_CAT_ID":49211,"ELEMENT_SET_NO":999,"REV_AT_EPOCH":22093,"BSTAR":-0.0008041000000000001,"MEAN_MOTION_DOT":-2.81e-06,"MEAN_MOTION_DDOT":0.0},{"OBJECT_NAME":"ONEWEB-0346","OBJECT_ID":"2021-083AC","EPOCH":"2026-04-02T06:27:36.383040","MEAN_MOTION":13.18687514,"ECCENTRICITY":0.0001086,"INCLINATION":87.9232,"RA_OF_ASC_NODE":350.5521,"ARG_OF_PERICENTER":85.7661,"MEAN_ANOMALY":274.3596,"EPHEMERIS_TYPE":0,"CLASSIFICATION_TYPE":"U","NORAD_CAT_ID":49212,"ELEMENT_SET_NO":999,"REV_AT_EPOCH":21997,"BSTAR":0.00012691,"MEAN_MOTION_DOT":6.3e-07,"MEAN_MOTION_DDOT":0.0},{"OBJECT_NAME":"ONEWEB-0348","OBJECT_ID":"2021-083AD","EPOCH":"2026-04-02T06:45:28.548288","MEAN_MOTION":13.20771742,"ECCENTRICITY":0.0001192,"INCLINATION":87.9146,"RA_OF_ASC_NODE":289.5954,"ARG_OF_PERICENTER":81.5566,"MEAN_ANOMALY":278.5702,"EPHEMERIS_TYPE":0,"CLASSIFICATION_TYPE":"U","NORAD_CAT_ID":49213,"ELEMENT_SET_NO":999,"REV_AT_EPOCH":22679,"BSTAR":1.8162e-05,"MEAN_MOTION_DOT":2e-07,"MEAN_MOTION_DDOT":0.0},{"OBJECT_NAME":"ONEWEB-0350","OBJECT_ID":"2021-083AE","EPOCH":"2026-04-02T04:07:09.372000","MEAN_MOTION":13.13472579,"ECCENTRICITY":0.0001593,"INCLINATION":87.9003,"RA_OF_ASC_NODE":335.352,"ARG_OF_PERICENTER":67.169,"MEAN_ANOMALY":292.9607,"EPHEMERIS_TYPE":0,"CLASSIFICATION_TYPE":"U","NORAD_CAT_ID":49214,"ELEMENT_SET_NO":999,"REV_AT_EPOCH":22095,"BSTAR":-0.00041117,"MEAN_MOTION_DOT":-1.37e-06,"MEAN_MOTION_DDOT":0.0},{"OBJECT_NAME":"ONEWEB-0351","OBJECT_ID":"2021-083AF","EPOCH":"2026-04-02T06:36:11.073024","MEAN_MOTION":13.20772857,"ECCENTRICITY":0.0002531,"INCLINATION":87.9147,"RA_OF_ASC_NODE":289.5949,"ARG_OF_PERICENTER":79.6668,"MEAN_ANOMALY":280.4751,"EPHEMERIS_TYPE":0,"CLASSIFICATION_TYPE":"U","NORAD_CAT_ID":49215,"ELEMENT_SET_NO":999,"REV_AT_EPOCH":22675,"BSTAR":3.8718000000000004e-05,"MEAN_MOTION_DOT":2.9e-07,"MEAN_MOTION_DDOT":0.0},{"OBJECT_NAME":"ONEWEB-0352","OBJECT_ID":"2021-083AG","EPOCH":"2026-04-02T05:28:47.756928","MEAN_MOTION":13.13468607,"ECCENTRICITY":0.0002087,"INCLINATION":87.9002,"RA_OF_ASC_NODE":335.3562,"ARG_OF_PERICENTER":76.8864,"MEAN_ANOMALY":283.2498,"EPHEMERIS_TYPE":0,"CLASSIFICATION_TYPE":"U","NORAD_CAT_ID":49216,"ELEMENT_SET_NO":999,"REV_AT_EPOCH":22105,"BSTAR":-0.00024685,"MEAN_MOTION_DOT":-7.7e-07,"MEAN_MOTION_DDOT":0.0},{"OBJECT_NAME":"ONEWEB-0354","OBJECT_ID":"2021-083AH","EPOCH":"2026-04-02T07:12:44.584992","MEAN_MOTION":13.20772261,"ECCENTRICITY":0.0001462,"INCLINATION":87.9142,"RA_OF_ASC_NODE":289.589,"ARG_OF_PERICENTER":81.7068,"MEAN_ANOMALY":278.4231,"EPHEMERIS_TYPE":0,"CLASSIFICATION_TYPE":"U","NORAD_CAT_ID":49217,"ELEMENT_SET_NO":999,"REV_AT_EPOCH":22679,"BSTAR":5.1009000000000006e-05,"MEAN_MOTION_DOT":3.4e-07,"MEAN_MOTION_DDOT":0.0},{"OBJECT_NAME":"ONEWEB-0355","OBJECT_ID":"2021-083AJ","EPOCH":"2026-04-02T04:20:44.798784","MEAN_MOTION":13.13471876,"ECCENTRICITY":0.0001852,"INCLINATION":87.8994,"RA_OF_ASC_NODE":335.3741,"ARG_OF_PERICENTER":74.4108,"MEAN_ANOMALY":285.7226,"EPHEMERIS_TYPE":0,"CLASSIFICATION_TYPE":"U","NORAD_CAT_ID":49218,"ELEMENT_SET_NO":999,"REV_AT_EPOCH":22092,"BSTAR":0.00024205,"MEAN_MOTION_DOT":1.01e-06,"MEAN_MOTION_DDOT":0.0},{"OBJECT_NAME":"ONEWEB-0357","OBJECT_ID":"2021-083AK","EPOCH":"2026-04-02T07:08:11.853024","MEAN_MOTION":13.20772338,"ECCENTRICITY":0.0001844,"INCLINATION":87.914,"RA_OF_ASC_NODE":289.5844,"ARG_OF_PERICENTER":86.6343,"MEAN_ANOMALY":273.5001,"EPHEMERIS_TYPE":0,"CLASSIFICATION_TYPE":"U","NORAD_CAT_ID":49219,"ELEMENT_SET_NO":999,"REV_AT_EPOCH":22679,"BSTAR":8.8915e-05,"MEAN_MOTION_DOT":4.9e-07,"MEAN_MOTION_DDOT":0.0},{"OBJECT_NAME":"ONEWEB-0332","OBJECT_ID":"2021-090A","EPOCH":"2026-04-02T02:25:14.230560","MEAN_MOTION":13.14506761,"ECCENTRICITY":0.0001965,"INCLINATION":87.8945,"RA_OF_ASC_NODE":304.8965,"ARG_OF_PERICENTER":90.8493,"MEAN_ANOMALY":269.2861,"EPHEMERIS_TYPE":0,"CLASSIFICATION_TYPE":"U","NORAD_CAT_ID":49279,"ELEMENT_SET_NO":999,"REV_AT_EPOCH":21758,"BSTAR":-0.0021336,"MEAN_MOTION_DOT":-7.78e-06,"MEAN_MOTION_DDOT":0.0},{"OBJECT_NAME":"ONEWEB-0347","OBJECT_ID":"2021-090B","EPOCH":"2026-04-02T06:54:34.228224","MEAN_MOTION":13.20771908,"ECCENTRICITY":0.000186,"INCLINATION":87.9145,"RA_OF_ASC_NODE":289.595,"ARG_OF_PERICENTER":97.4778,"MEAN_ANOMALY":262.6567,"EPHEMERIS_TYPE":0,"CLASSIFICATION_TYPE":"U","NORAD_CAT_ID":49280,"ELEMENT_SET_NO":999,"REV_AT_EPOCH":22102,"BSTAR":8.034700000000001e-05,"MEAN_MOTION_DOT":4.6e-07,"MEAN_MOTION_DDOT":0.0},{"OBJECT_NAME":"ONEWEB-0349","OBJECT_ID":"2021-090C","EPOCH":"2026-04-02T05:50:56.329728","MEAN_MOTION":13.20772059,"ECCENTRICITY":0.0001678,"INCLINATION":87.9142,"RA_OF_ASC_NODE":289.6041,"ARG_OF_PERICENTER":89.2413,"MEAN_ANOMALY":270.8913,"EPHEMERIS_TYPE":0,"CLASSIFICATION_TYPE":"U","NORAD_CAT_ID":49281,"ELEMENT_SET_NO":999,"REV_AT_EPOCH":21980,"BSTAR":0.00013468,"MEAN_MOTION_DOT":6.8e-07,"MEAN_MOTION_DDOT":0.0}]