ONEWEB-0341             
1 49207U 21083X   26092.26421950  .00000075  00000+0  15721-3 0  9994
2 49207  87.9235 350.5518 0001799  63.2520 296.8796 13.18689324219980
ONEWEB-0342             
1 49208U 21083Y   26092.06378786  .00000063  00000+0  12216-3 0  9994
2 49208  87.9143 289.6360 0001820  88.8269 271.3073 13.20771168226732
ONEWEB-0343             
1 49209U 21083Z   26092.27248283  .00000095  00000+0  20793-3 0  9990
2 49209  87.9241 350.5454 0002091  67.2016 292.9337 13.18685400220035
ONEWEB-0344             
1 49210U 21083AA  26092.17078309 -.00000177  00000+0 -51963-3 0  9997
2 49210  87.8994 335.3831 0001686  67.6812 292.4496 13.13470145220919
ONEWEB-0345             
1 49211U 21083AB  26092.23849080 -.00000281  00000+0 -80410-3 0  9992
2 49211  87.9009 335.3395 0001716  69.3024 290.8289 13.13471566220933
ONEWEB-0346             
1 49212U 21083AC  26092.26917110  .00000063  00000+0  12691-3 0  9998
2 49212  87.9232 350.5521 0001086  85.7661 274.3596 13.18687514219978
ONEWEB-0348             
1 49213U 21083AD  26092.28158042  .00000020  00000+0  18162-4 0  9995
2 49213  87.9146 289.5954 0001192  81.5566 278.5702 13.20771742226793
ONEWEB-0350             
1 49214U 21083AE  26092.17163625 -.00000137  00000+0 -41117-3 0  9993
2 49214  87.9003 335.3520 0001593  67.1690 292.9607 13.13472579220952
ONEWEB-0351             
1 49215U 21083AF  26092.27512816  .00000029  00000+0  38718-4 0  9997
2 49215  87.9147 289.5949 0002531  79.6668 280.4751 13.20772857226759
ONEWEB-0352             
1 49216U 21083AG  26092.22833052 -.00000077  00000+0 -24685-3 0  9993
2 49216  87.9002 335.3562 0002087  76.8864 283.2498 13.13468607221058
ONEWEB-0354             
1 49217U 21083AH  26092.30051603  .00000034  00000+0  51009-4 0  9999
2 49217  87.9142 289.5890 0001462  81.7068 278.4231 13.20772261226794
ONEWEB-0355             
1 49218U 21083AJ  26092.18107406  .00000101  00000+0  24205-3 0  9991
2 49218  87.8994 335.3741 0001852  74.4108 285.7226 13.13471876220925
ONEWEB-0357             
1 49219U 21083AK  26092.29735941  .00000049  00000+0  88915-4 0  9995
2 49219  87.9140 289.5844 0001844  86.6343 273.5001 13.20772338226793
ONEWEB-0332             
1 49279U 21090A   26092.10085915 -.00000778  00000+0 -21336-2 0  9991
2 49279  87.8945 304.8965 0001965  90.8493 269.2861 13.14506761217584
ONEWEB-0347             
1 49280U 21090B   26092.28789616  .00000046  00000+0  80347-4 0  9996
2 49280  87.9145 289.5950 0001860  97.4778 262.6567 13.20771908221023
ONEWEB-0349             
1 49281U 21090C   26092.24370752  .00000068  00000+0  13468-3 0  9993
2 49281  87.9142 289.6041 0001678  89.2413 270.8913 13.20772059219802
